NORAD_CAT_ID,OBJECT_NAME,OBJECT_TYPE,EPOCH,MEAN_MOTION,ECCENTRICITY,INCLINATION,RA_OF_ASC_NODE,ARG_OF_PERICENTER,MEAN_ANOMALY,BSTAR,MEAN_MOTION_DOT,MEAN_MOTION_DDOT,TLE_LINE0,TLE_LINE1,TLE_LINE2,SEMIMAJOR_AXIS,PERIOD,APOGEE,PERIGEE,DECAYED
49434.0,STARLINK-3134,PAYLOAD,2022-07-28 05:37:40,15.08831637,0.0001621,53.2177,36.8862,67.8061,292.3103,-6.0487e-06,-3.84e-06,0.0,0 STARLINK-3134,1 49434U 21104AC  22209.23449572 -.00000384  00000-0 -60487-5 0  9990,2 49434  53.2177  36.8862 0001621  67.8061 292.3103 15.08831637 40378,6917.906,95.438,540.8919999999998,538.65,0.0
49434.0,STARLINK-3134,PAYLOAD,2022-07-28 11:59:12,15.08837046,0.0001633,53.218,35.6964,69.4666,290.6502,5.9537e-05,6.6e-06,0.0,0 STARLINK-3134,1 49434U 21104AC  22209.49945403  .00000660  00000-0  59537-4 0  9990,2 49434  53.2180  35.6964 0001633  69.4666 290.6502 15.08837046 40413,6917.889,95.438,540.884,538.625,0.0
49434.0,STARLINK-3134,PAYLOAD,2022-07-28 18:20:45,15.08838778,0.0001579,53.2179,34.507,69.5126,290.6036,5.1835e-05,5.37e-06,0.0,0 STARLINK-3134,1 49434U 21104AC  22209.76441362  .00000537  00000-0  51835-4 0  9991,2 49434  53.2179  34.5070 0001579  69.5126 290.6036 15.08838778 40457,6917.884,95.438,540.841,538.6569999999998,0.0
49434.0,STARLINK-3134,PAYLOAD,2022-07-28 21:31:31,15.088402,0.0001583,53.2179,33.9122,68.6632,291.4529,7.4724e-05,9.01e-06,0.0,0 STARLINK-3134,1 49434U 21104AC  22209.89689333  .00000901  00000-0  74724-4 0  9994,2 49434  53.2179  33.9122 0001583  68.6632 291.4529 15.08840200 40476,6917.88,95.438,540.84,538.65,0.0
49434.0,STARLINK-3134,PAYLOAD,2022-07-29 11:49:59,15.08843201,0.0001488,53.2175,31.2359,68.5855,291.5296,0.00014023,1.945e-05,0.0,0 STARLINK-3134,1 49434U 21104AC  22210.49305143  .00001945  00000-0  14023-3 0  9990,2 49434  53.2175  31.2359 0001488  68.5855 291.5296 15.08843201 40561,6917.871,95.437,540.765,538.706,0.0
49434.0,STARLINK-3134,PAYLOAD,2022-07-29 18:11:32,15.08845689,0.0001514,53.2177,30.0466,68.485,291.6303,0.00020015,2.899e-05,0.0,0 STARLINK-3134,1 49434U 21104AC  22210.75801081  .00002899  00000-0  20015-3 0  9998,2 49434  53.2177  30.0466 0001514  68.4850 291.6303 15.08845689 40600,6917.863,95.437,540.775,538.681,0.0
49434.0,STARLINK-3134,PAYLOAD,2022-07-30 11:40:46,15.08852404,0.0001472,53.2176,26.7756,66.7921,293.3226,0.00034751,5.249e-05,0.0,0 STARLINK-3134,1 49434U 21104AC  22211.48664704  .00005249  00000-0  34751-3 0  9992,2 49434  53.2176  26.7756 0001472  66.7921 293.3226 15.08852404 40714,6917.842,95.437,540.726,538.689,0.0
49434.0,STARLINK-3134,PAYLOAD,2022-07-30 18:02:19,15.08836139,0.0001576999999999,53.218,25.5866,68.4457,291.6703,2.0856e-05,4.4e-07,0.0,0 STARLINK-3134,1 49434U 21104AC  22211.75161477  .00000044  00000-0  20856-4 0  9991,2 49434  53.2180  25.5866 0001577  68.4457 291.6703 15.08836139 40759,6917.892,95.438,540.8480000000002,538.6659999999998,0.0
49434.0,STARLINK-3134,PAYLOAD,2022-07-30 21:13:05,15.08837391,0.0001584,53.2182,24.9919,68.9217,291.1944,6.1698e-05,6.94e-06,0.0,0 STARLINK-3134,1 49434U 21104AC  22211.88409549  .00000694  00000-0  61698-4 0  9990,2 49434  53.2182  24.9919 0001584  68.9217 291.1944 15.08837391 40775,6917.888000000001,95.438,540.849,538.658,0.0
49434.0,STARLINK-3134,PAYLOAD,2022-07-31 11:31:34,15.0883961,0.0001610999999999,53.2181,22.3157,69.5663,290.5502,3.8459e-05,3.24e-06,0.0,0 STARLINK-3134,1 49434U 21104AC  22212.48025484  .00000324  00000-0  38459-4 0  9998,2 49434  53.2181  22.3157 0001611  69.5663 290.5502 15.08839610 40862,6917.882,95.438,540.861,538.632,0.0
49434.0,STARLINK-3134,PAYLOAD,2022-07-31 17:53:06,15.08842647,0.0001592,53.2188,21.1265,70.6365,289.4799,5.4202e-05,5.75e-06,0.0,0 STARLINK-3134,1 49434U 21104AC  22212.74521311  .00000575  00000-0  54202-4 0  9999,2 49434  53.2188  21.1265 0001592  70.6365 289.4799 15.08842647 40900,6917.871999999999,95.437,540.839,538.636,0.0
49434.0,STARLINK-3134,PAYLOAD,2022-07-31 21:03:52,15.0884329,0.0001636999999999,53.2187,20.5315,73.2394,286.8777,5.9522e-05,6.59e-06,0.0,0 STARLINK-3134,1 49434U 21104AC  22212.87769224  .00000659  00000-0  59522-4 0  9993,2 49434  53.2187  20.5315 0001637  73.2394 286.8777 15.08843290 40923,6917.87,95.437,540.868,538.6030000000002,0.0
49434.0,STARLINK-3134,PAYLOAD,2022-08-01 11:22:20,15.08842563,0.00016,53.2187,17.8554,70.4674,289.6491,0.00013761,1.903e-05,0.0,0 STARLINK-3134,1 49434U 21104AC  22213.47384969  .00001903  00000-0  13761-3 0  9996,2 49434  53.2187  17.8554 0001600  70.4674 289.6491 15.08842563 41014,6917.873000000001,95.437,540.844,538.631,0.0
49434.0,STARLINK-3134,PAYLOAD,2022-08-01 20:54:42,15.08797099,0.0001789,53.2187,16.0715,67.4442,292.6739,-0.0002329,-3.988e-05,0.0,0 STARLINK-3134,1 49434U 21104AC  22213.87132906 -.00003988  00000-0 -23290-3 0  9997,2 49434  53.2187  16.0715 0001789  67.4442 292.6739 15.08797099 41079,6918.012,95.44,541.114,538.639,0.0
49434.0,STARLINK-3134,PAYLOAD,2022-08-02 11:13:10,15.08815219,0.0001385,53.2186,13.3948,71.6796,288.4347,-0.00011673,-2.144e-05,0.0,0 STARLINK-3134,1 49434U 21104AC  22214.46748252 -.00002144  00000-0 -11673-3 0  9995,2 49434  53.2186  13.3948 0001385  71.6796 288.4347 15.08815219 41160,6917.956,95.439,540.779,538.863,0.0
49434.0,STARLINK-3134,PAYLOAD,2022-08-03 03:07:00,15.08836461,0.0001545,53.219,10.4213,68.6012,291.5145,6.6958e-05,7.78e-06,0.0,0 STARLINK-3134,1 49434U 21104AC  22215.12987005  .00000778  00000-0  66958-4 0  9996,2 49434  53.2190  10.4213 0001545  68.6012 291.5145 15.08836461 41267,6917.891,95.438,540.825,538.687,0.0
49434.0,STARLINK-3134,PAYLOAD,2022-08-03 11:03:56,15.08836718,0.0001488,53.2181,8.9343,62.746,297.3684,8.5665e-05,1.076e-05,0.0,0 STARLINK-3134,1 49434U 21104AC  22215.46107117  .00001076  00000-0  85665-4 0  9999,2 49434  53.2181   8.9343 0001488  62.7460 297.3684 15.08836718 41314,6917.89,95.438,540.785,538.726,0.0
49434.0,STARLINK-3134,PAYLOAD,2022-08-03 19:00:52,15.08840414,0.0001516,53.2183,7.4478,64.9433,295.1717,0.00015277,2.144e-05,0.0,0 STARLINK-3134,1 49434U 21104AC  22215.79227050  .00002144  00000-0  15277-3 0  9992,2 49434  53.2183   7.4478 0001516  64.9433 295.1717 15.08840414 41361,6917.879,95.438,540.793,538.695,0.0
49434.0,STARLINK-3134,PAYLOAD,2022-08-04 10:54:43,15.08847496,0.0001539,53.2183,4.474,63.3246,296.7904,0.00021827,3.188e-05,0.0,0 STARLINK-3134,1 49434U 21104AC  22216.45466880  .00003188  00000-0  21827-3 0  9999,2 49434  53.2183   4.4740 0001539  63.3246 296.7904 15.08847496 41463,6917.857,95.437,540.7869999999998,538.658,0.0
49434.0,STARLINK-3134,PAYLOAD,2022-08-04 18:51:38,15.088533800000002,0.0001565999999999,53.2183,2.9873,63.3648,296.7504,0.00027114,4.031e-05,0.0,0 STARLINK-3134,1 49434U 21104AC  22216.78586481  .00004031  00000-0  27114-3 0  9998,2 49434  53.2183   2.9873 0001566  63.3648 296.7504 15.08853380 41510,6917.839,95.437,540.788,538.621,0.0
49434.0,STARLINK-3134,PAYLOAD,2022-08-05 10:45:29,15.08850358,0.0001584,53.2184,0.0138,64.98899999999999,295.1267,0.00010607,1.401e-05,0.0,0 STARLINK-3134,1 49434U 21104AC  22217.44826198  .00001401  00000-0  10607-3 0  9991,2 49434  53.2184   0.0138 0001584  64.9890 295.1267 15.08850358 41612,6917.849,95.437,540.81,538.618,0.0
49434.0,STARLINK-3134,PAYLOAD,2022-08-06 12:11:39,15.08856316,0.0001610999999999,53.2188,355.2562,66.2822,293.8339,0.00013294,1.829e-05,0.0,0 STARLINK-3134,1 49434U 21104AC  22218.50809317  .00001829  00000-0  13294-3 0  9992,2 49434  53.2188 355.2562 0001611  66.2822 293.8339 15.08856316 41775,6917.831,95.437,540.81,538.581,0.0
49434.0,STARLINK-3134,PAYLOAD,2022-08-06 18:33:12,15.08845154,0.0001569,53.2185,354.0665,65.4551,294.6604,-4.4995e-05,-1.004e-05,0.0,0 STARLINK-3134,1 49434U 21104AC  22218.77305695 -.00001004  00000-0 -44995-4 0  9991,2 49434  53.2185 354.0665 0001569  65.4551 294.6604 15.08845154 41812,6917.865,95.437,540.815,538.644,0.0
49434.0,STARLINK-3134,PAYLOAD,2022-08-07 13:37:49,15.08851437,0.0001441999999999,53.2183,350.4985,50.6943,309.4176,0.00013848,1.917e-05,0.0,0 STARLINK-3134,1 49434U 21104AC  22219.56793227  .00001917  00000-0  13848-3 0  9994,2 49434  53.2183 350.4985 0001442  50.6943 309.4176 15.08851437 41939,6917.845,95.437,540.7080000000002,538.7130000000002,0.0
49434.0,STARLINK-3134,PAYLOAD,2022-08-07 16:48:35,15.08853321,0.0001591,53.2184,349.9036,66.1371,293.9788,0.00021182,3.086e-05,0.0,0 STARLINK-3134,1 49434U 21104AC  22219.70041147  .00003086  00000-0  21182-3 0  9996,2 49434  53.2184 349.9036 0001591  66.1371 293.9788 15.08853321 41954,6917.84,95.437,540.805,538.604,0.0
49434.0,STARLINK-3134,PAYLOAD,2022-08-08 02:20:54,15.08844771,0.0001613,53.2179,348.12,56.2314,303.8831,6.6477e-06,-1.82e-06,0.0,0 STARLINK-3134,1 49434U 21104AC  22220.09785573 -.00000182  00000-0  66477-5 0  9991,2 49434  53.2179 348.1200 0001613  56.2314 303.8831 15.08844771 42011,6917.866,95.437,540.847,538.615,0.0
49434.0,STARLINK-3134,PAYLOAD,2022-08-08 11:53:13,15.08854621,0.0001545,53.2176,346.3347,60.5415,299.5731,0.00028252,4.213e-05,0.0,0 STARLINK-3134,1 49434U 21104AC  22220.49529033  .00004213  00000-0  28252-3 0  9997,2 49434  53.2176 346.3347 0001545  60.5415 299.5731 15.08854621 42075,6917.8359999999975,95.437,540.77,538.632,0.0
49434.0,STARLINK-3134,PAYLOAD,2022-08-08 18:14:45,15.0886301,0.0001571999999999,53.2178,345.1458,60.6932,299.4217,0.00075808,0.00011805,0.0,0 STARLINK-3134,1 49434U 21104AC  22220.76024883  .00011805  00000-0  75808-3 0  9994,2 49434  53.2178 345.1458 0001572  60.6932 299.4217 15.08863010 42117,6917.81,95.436,540.763,538.5880000000002,0.0
49434.0,STARLINK-3134,PAYLOAD,2022-08-09 13:19:22,15.0884424,0.000155,53.218,341.5778,56.3583,303.7557,-8.7028e-05,-1.673e-05,0.0,0 STARLINK-3134,1 49434U 21104AC  22221.55512530 -.00001673  00000-0 -87028-4 0  9995,2 49434  53.2180 341.5778 0001550  56.3583 303.7557 15.08844240 42238,6917.8669999999975,95.437,540.805,538.66,0.0
